STARLINK-35736          
1 66230U 25244AA  26068.65642788  .00020813  00000+0  71268-3 0  9992
2 66230  53.1586 230.1149 0001202  75.0475 285.0658 15.30209054 21657
2025-313BC              
1 67298U 25313BC  26068.18968176  .00075331  00000+0  26410-2 0  9997
2 67298  97.3985 144.8110 0008478 328.9209  31.1528 15.29126358  7890
